HAWK-A                  
1 43765U 18099H   26068.67628545  .00008617  00000+0  36104-3 0  9995
2 43765  97.4051 122.2425 0034260 275.5523  84.1807 15.23231043397949
STARLINK-35925          
1 66887U 25283K   26068.30290063  .00015542  00000+0  53593-3 0  9994
2 66887  53.1612  26.0581 0000919  75.3688 284.7414 15.30190280 15783
